[{"OBJECT_NAME":"STARLINK-3103","OBJECT_ID":"2021-082AZ","EPOCH":"2026-03-09T22:13:51.503520","MEAN_MOTION":14.98342719,"ECCENTRICITY":0.00028766,"INCLINATION":69.9986,"RA_OF_ASC_NODE":253.8622,"ARG_OF_PERICENTER":267.6681,"MEAN_ANOMALY":92.4149,"EPHEMERIS_TYPE":0,"CLASSIFICATION_TYPE":"U","NORAD_CAT_ID":49177,"ELEMENT_SET_NO":999,"REV_AT_EPOCH":24819,"BSTAR":-0.00013195845,"MEAN_MOTION_DOT":-1.668e-5,"MEAN_MOTION_DDOT":0},{"OBJECT_NAME":"DELTA 1 DEB","OBJECT_ID":"1972-058EG","EPOCH":"2026-03-09T15:29:57.375744","MEAN_MOTION":14.93143945,"ECCENTRICITY":0.0071537,"INCLINATION":98.4418,"RA_OF_ASC_NODE":299.7647,"ARG_OF_PERICENTER":185.1751,"MEAN_ANOMALY":174.8735,"EPHEMERIS_TYPE":0,"CLASSIFICATION_TYPE":"U","NORAD_CAT_ID":8314,"ELEMENT_SET_NO":999,"REV_AT_EPOCH":83297,"BSTAR":0.00043799,"MEAN_MOTION_DOT":4.734e-5,"MEAN_MOTION_DDOT":0}]
